{
  "type": "FeatureCollection",
  "features": [
    {
      "type": "Feature",
      "properties": {
        "COUNTYNAME": "測試縣",
        "TOWNNAME": "投影鄉",
        "VILLNAME": "洞洞村"
      },
      "geometry": {
        "type": "Polygon",
        "coordinates": [
          [
            [120.0, 22.0],
            [122.0, 22.0],
            [122.0, 25.0],
            [120.0, 25.0],
            [120.0, 22.0]
          ],
          [
            [121.0, 22.4],
            [121.8, 22.4],
            [121.8, 24.8],
            [121.0, 24.8],
            [121.0, 22.4]
          ]
        ]
      }
    }
  ]
}
